{
    "links": {
        "self": "http://www.neowsapp.com/rest/v1/neo/3701708?api_key=iIulBulltgU6a56xZRHN4H3l9WmuAYTsLGpBGhQ2"
    },
    "id": "3701708",
    "neo_reference_id": "3701708",
    "name": "(2014 WE497)",
    "designation": "2014 WE497",
    "nasa_jpl_url": "http://ssd.jpl.nasa.gov/sbdb.cgi?sstr=3701708",
    "absolute_magnitude_h": 22.5,
    "estimated_diameter": {
        "kilometers": {
            "estimated_diameter_min": 0.0840533402,
            "estimated_diameter_max": 0.1879489824
        },
        "meters": {
            "estimated_diameter_min": 84.0533402073,
            "estimated_diameter_max": 187.9489824394
        },
        "miles": {
            "estimated_diameter_min": 0.0522283081,
            "estimated_diameter_max": 0.1167860472
        },
        "feet": {
            "estimated_diameter_min": 275.7655606856,
            "estimated_diameter_max": 616.6305395464
        }
    },
    "is_potentially_hazardous_asteroid": false,
    "close_approach_data": [
        {
            "close_approach_date": "2014-11-27",
            "close_approach_date_full": "2014-Nov-27 22:45",
            "epoch_date_close_approach": 1417128300000,
            "relative_velocity": {
                "kilometers_per_second": "7.7497279191",
                "kilometers_per_hour": "27899.0205085862",
                "miles_per_hour": "17335.3663821268"
            },
            "miss_distance": {
                "astronomical": "0.3103937665",
                "lunar": "120.7431751685",
                "kilometers": "46434246.329677355",
                "miles": "28852902.742383299"
            },
            "orbiting_body": "Earth"
        }
    ],
    "orbital_data": {
        "orbit_id": "5",
        "orbit_determination_date": "2017-04-06 08:36:59",
        "first_observation_date": "2014-11-28",
        "last_observation_date": "2014-12-13",
        "data_arc_in_days": 15,
        "observations_used": 27,
        "orbit_uncertainty": "8",
        "minimum_orbit_intersection": ".310409",
        "jupiter_tisserand_invariant": "3.118",
        "epoch_osculation": "2456997.5",
        "eccentricity": ".5223746695110674",
        "semi_major_axis": "2.705849731818594",
        "inclination": "13.76558805601005",
        "ascending_node_longitude": "75.45381955968698",
        "orbital_period": "1625.75065905202",
        "perihelion_distance": "1.292382372413246",
        "perihelion_argument": "345.9468953852025",
        "aphelion_distance": "4.119317091223943",
        "perihelion_time": "2456984.993995797378",
        "mean_anomaly": "2.769281677898346",
        "mean_motion": ".2214361704210639",
        "equinox": "J2000",
        "orbit_class": {
            "orbit_class_type": "AMO",
            "orbit_class_description": "Near-Earth asteroid orbits similar to that of 1221 Amor",
            "orbit_class_range": "1.017 AU < q (perihelion) < 1.3 AU"
        }
    },
    "is_sentry_object": false
}